{
    "links": {
        "self": "http://www.neowsapp.com/rest/v1/neo/3726424?api_key=iIulBulltgU6a56xZRHN4H3l9WmuAYTsLGpBGhQ2"
    },
    "id": "3726424",
    "neo_reference_id": "3726424",
    "name": "(2015 QE)",
    "designation": "2015 QE",
    "nasa_jpl_url": "http://ssd.jpl.nasa.gov/sbdb.cgi?sstr=3726424",
    "absolute_magnitude_h": 23.2,
    "estimated_diameter": {
        "kilometers": {
            "estimated_diameter_min": 0.0608912622,
            "estimated_diameter_max": 0.1361570015
        },
        "meters": {
            "estimated_diameter_min": 60.8912622106,
            "estimated_diameter_max": 136.1570015386
        },
        "miles": {
            "estimated_diameter_min": 0.0378360645,
            "estimated_diameter_max": 0.0846040122
        },
        "feet": {
            "estimated_diameter_min": 199.7744887109,
            "estimated_diameter_max": 446.7093369279
        }
    },
    "is_potentially_hazardous_asteroid": false,
    "close_approach_data": [
        {
            "close_approach_date": "2014-08-11",
            "close_approach_date_full": "2014-Aug-11 00:00",
            "epoch_date_close_approach": 1407715200000,
            "relative_velocity": {
                "kilometers_per_second": "12.8723545775",
                "kilometers_per_hour": "46340.4764791667",
                "miles_per_hour": "28794.1699545133"
            },
            "miss_distance": {
                "astronomical": "0.4088332588",
                "lunar": "159.0361376732",
                "kilometers": "61160584.701638756",
                "miles": "38003425.0913605928"
            },
            "orbiting_body": "Earth"
        },
        {
            "close_approach_date": "2015-07-29",
            "close_approach_date_full": "2015-Jul-29 10:41",
            "epoch_date_close_approach": 1438166460000,
            "relative_velocity": {
                "kilometers_per_second": "17.7971602082",
                "kilometers_per_hour": "64069.776749462",
                "miles_per_hour": "39810.4676696866"
            },
            "miss_distance": {
                "astronomical": "0.0683856506",
                "lunar": "26.6020180834",
                "kilometers": "10230347.668324222",
                "miles": "6356843.2703573836"
            },
            "orbiting_body": "Earth"
        },
        {
            "close_approach_date": "2016-08-13",
            "close_approach_date_full": "2016-Aug-13 12:42",
            "epoch_date_close_approach": 1471092120000,
            "relative_velocity": {
                "kilometers_per_second": "30.0482778357",
                "kilometers_per_hour": "108173.8002084347",
                "miles_per_hour": "67214.9926906243"
            },
            "miss_distance": {
                "astronomical": "0.3905340707",
                "lunar": "151.9177535023",
                "kilometers": "58423065.139149409",
                "miles": "36302409.3123794842"
            },
            "orbiting_body": "Earth"
        }
    ],
    "orbital_data": {
        "orbit_id": "4",
        "orbit_determination_date": "2019-07-19 05:25:58",
        "first_observation_date": "2015-08-16",
        "last_observation_date": "2015-08-19",
        "data_arc_in_days": 3,
        "observations_used": 16,
        "orbit_uncertainty": "9",
        "minimum_orbit_intersection": ".0621046",
        "jupiter_tisserand_invariant": "5.690",
        "epoch_osculation": "2457251.5",
        "eccentricity": ".5617540920411891",
        "semi_major_axis": "1.047013828153982",
        "inclination": "13.92446239974092",
        "ascending_node_longitude": "140.1029578872218",
        "orbital_period": "391.3155022963055",
        "perihelion_distance": ".4588495257647725",
        "perihelion_argument": "42.97285715998186",
        "aphelion_distance": "1.635178130543192",
        "perihelion_time": "2457170.524520624245",
        "mean_anomaly": "74.49531747198307",
        "mean_motion": ".9199737753486871",
        "equinox": "J2000",
        "orbit_class": {
            "orbit_class_type": "APO",
            "orbit_class_description": "Near-Earth asteroid orbits which cross the Earth’s orbit similar to that of 1862 Apollo",
            "orbit_class_range": "a (semi-major axis) > 1.0 AU; q (perihelion) < 1.017 AU"
        }
    },
    "is_sentry_object": false
}